{"fetched_at":"2026-03-28T16:33:49Z","count":6709,"tles":[{"name":"HERMES-6","line1":"1 63489U 25052BK  26087.17508579  .00009628  00000+0  42477-3 0  9990","line2":"2 63489  97.4088 340.8573 0008334  93.4708 266.7482 15.21947401 57503","category":"Other"}]}