{
  "norad_id": 63489,
  "name": "HERMES-6",
  "history": [
    {
      "epoch": "2026-03-28T04:12:07.412256Z",
      "apogee_km": 505.69933082706757,
      "perigee_km": 494.23490688176025,
      "latitude_deg": 5.1827805999732075e-05,
      "longitude_deg": 92.22710082471879,
      "height_km": 503.39000684323975,
      "semi_major_axis_km": 6878.104118854413,
      "eccentricity": 0.0008334,
      "inclination_deg": 97.4088,
      "raan_deg": 340.8573,
      "arg_perigee_deg": 93.4708,
      "mean_anomaly_deg": 266.7482,
      "mean_motion_rev_day": 15.21947401
    }
  ]
}